{
  "type": "FeatureCollection",
  "features": [
    {
      "type": "Feature",
      "properties": {
        "norad_id": 66625,
        "name": "STARLINK-35929",
        "group": "last-30-days",
        "lat": -30.941605480965574,
        "lon": 114.4899039241369,
        "alt_km": 451.5826798708231,
        "timestamp": "2025-12-22T09:53:36.142901+00:00",
        "meta_object_name": "STARLINK-35929",
        "meta_object_id": "2025-271J",
        "meta_epoch": "2025-12-22T04:00:01.998720",
        "meta_mean_motion": 15.39581218,
        "meta_eccentricity": 8.36e-05,
        "meta_inclination": 53.1601,
        "meta_ra_of_asc_node": 142.3545,
        "meta_arg_of_pericenter": 92.4284,
        "meta_mean_anomaly": 306.0266,
        "meta_ephemeris_type": 0,
        "meta_classification_type": "U",
        "meta_norad_cat_id": 66625,
        "meta_element_set_no": 999,
        "meta_rev_at_epoch": 575,
        "meta_bstar": 0.00088803,
        "meta_mean_motion_dot": 0.0003524,
        "meta_mean_motion_ddot": 0,
        "tle_line1": "1 66625U 25271J   25356.16668980  .00035240  00000+0  88803-3 0  9990",
        "tle_line2": "2 66625  53.1601 142.3545 0000836  92.4284 306.0266 15.39581218  5756"
      },
      "geometry": {
        "type": "Point",
        "coordinates": [
          114.4899039241369,
          -30.941605480965574
        ]
      }
    },
    {
      "type": "Feature",
      "properties": {
        "norad_id": 66626,
        "name": "STARLINK-35902",
        "group": "last-30-days",
        "lat": -45.441545955112844,
        "lon": 10.933608509133837,
        "alt_km": 452.50506885504274,
        "timestamp": "2025-12-22T09:53:36.142925+00:00",
        "meta_object_name": "STARLINK-35902",
        "meta_object_id": "2025-271K",
        "meta_epoch": "2025-12-22T02:36:40.026240",
        "meta_mean_motion": 15.39638876,
        "meta_eccentricity": 0.0001309,
        "meta_inclination": 53.1611,
        "meta_ra_of_asc_node": 142.7821,
        "meta_arg_of_pericenter": 86.5012,
        "meta_mean_anomaly": 273.6143,
        "meta_ephemeris_type": 0,
        "meta_classification_type": "U",
        "meta_norad_cat_id": 66626,
        "meta_element_set_no": 999,
        "meta_rev_at_epoch": 565,
        "meta_bstar": 0.0011038,
        "meta_mean_motion_dot": 0.00044034,
        "meta_mean_motion_ddot": 0,
        "tle_line1": "1 66626U 25271K   25356.10879660  .00044034  00000+0  11038-2 0  9990",
        "tle_line2": "2 66626  53.1611 142.7821 0001309  86.5012 273.6143 15.39638876  5653"
      },
      "geometry": {
        "type": "Point",
        "coordinates": [
          10.933608509133837,
          -45.441545955112844
        ]
      }
    },
    {
      "type": "Feature",
      "properties": {
        "norad_id": 66627,
        "name": "STARLINK-35904",
        "group": "last-30-days",
        "lat": -46.8263209477411,
        "lon": 88.20275170172586,
        "alt_km": 452.46580203313897,
        "timestamp": "2025-12-22T09:53:36.142935+00:00",
        "meta_object_name": "STARLINK-35904",
        "meta_object_id": "2025-271L",
        "meta_epoch": "2025-12-22T00:00:00.998784",
        "meta_mean_motion": 15.39600841,
        "meta_eccentricity": 9.47e-05,
        "meta_inclination": 53.1593,
        "meta_ra_of_asc_node": 143.192,
        "meta_arg_of_pericenter": 83.5491,
        "meta_mean_anomaly": 84.7794,
        "meta_ephemeris_type": 0,
        "meta_classification_type": "U",
        "meta_norad_cat_id": 66627,
        "meta_element_set_no": 999,
        "meta_rev_at_epoch": 557,
        "meta_bstar": 0.00033133,
        "meta_mean_motion_dot": 0.00012867,
        "meta_mean_motion_ddot": 0,
        "tle_line1": "1 66627U 25271L   25356.00001156  .00012867  00000+0  33133-3 0  9997",
        "tle_line2": "2 66627  53.1593 143.1920 0000947  83.5491  84.7794 15.39600841  5578"
      },
      "geometry": {
        "type": "Point",
        "coordinates": [
          88.20275170172586,
          -46.8263209477411
        ]
      }
    },
    {
      "type": "Feature",
      "properties": {
        "norad_id": 66628,
        "name": "STARLINK-35862",
        "group": "last-30-days",
        "lat": 38.643756507329584,
        "lon": 177.84312352525808,
        "alt_km": 424.77803060890074,
        "timestamp": "2025-12-22T09:53:36.142946+00:00",
        "meta_object_name": "STARLINK-35862",
        "meta_object_id": "2025-271M",
        "meta_epoch": "2025-12-22T04:00:01.998720",
        "meta_mean_motion": 15.4592964,
        "meta_eccentricity": 0.0001331,
        "meta_inclination": 53.1608,
        "meta_ra_of_asc_node": 142.183,
        "meta_arg_of_pericenter": 72.2153,
        "meta_mean_anomaly": 52.1873,
        "meta_ephemeris_type": 0,
        "meta_classification_type": "U",
        "meta_norad_cat_id": 66628,
        "meta_element_set_no": 999,
        "meta_rev_at_epoch": 575,
        "meta_bstar": -0.027296,
        "meta_mean_motion_dot": -0.01226244,
        "meta_mean_motion_ddot": 0,
        "tle_line1": "1 66628U 25271M   25356.16668980 -.01226244  00000+0 -27296-1 0  9999",
        "tle_line2": "2 66628  53.1608 142.1830 0001331  72.2153  52.1873 15.45929640  5758"
      },
      "geometry": {
        "type": "Point",
        "coordinates": [
          177.84312352525808,
          38.643756507329584
        ]
      }
    },
    {
      "type": "Feature",
      "properties": {
        "norad_id": 66629,
        "name": "STARLINK-35956",
        "group": "last-30-days",
        "lat": 52.980743373248615,
        "lon": -122.92693701058549,
        "alt_km": 410.5448510180204,
        "timestamp": "2025-12-22T09:53:36.142956+00:00",
        "meta_object_name": "STARLINK-35956",
        "meta_object_id": "2025-271N",
        "meta_epoch": "2025-12-18T16:00:00.999936",
        "meta_mean_motion": 15.49463337,
        "meta_eccentricity": 5.424e-05,
        "meta_inclination": 53.1591,
        "meta_ra_of_asc_node": 158.846,
        "meta_arg_of_pericenter": 63.7637,
        "meta_mean_anomaly": 4.4961,
        "meta_ephemeris_type": 0,
        "meta_classification_type": "U",
        "meta_norad_cat_id": 66629,
        "meta_element_set_no": 999,
        "meta_rev_at_epoch": 519,
        "meta_bstar": 0.0002238515,
        "meta_mean_motion_dot": 0.00012088,
        "meta_mean_motion_ddot": 0,
        "tle_line1": "1 66629U 25271N   25352.66667824  .00012088  00000+0  22385-3 0  9999",
        "tle_line2": "2 66629  53.1591 158.8460 0000542  63.7637   4.4961 15.49463337  5194"
      },
      "geometry": {
        "type": "Point",
        "coordinates": [
          -122.92693701058549,
          52.980743373248615
        ]
      }
    },
    {
      "type": "Feature",
      "properties": {
        "norad_id": 66630,
        "name": "STARLINK-35949",
        "group": "last-30-days",
        "lat": 44.10632751958159,
        "lon": -172.39640530746834,
        "alt_km": 421.849933925012,
        "timestamp": "2025-12-22T09:53:36.142968+00:00",
        "meta_object_name": "STARLINK-35949",
        "meta_object_id": "2025-271P",
        "meta_epoch": "2025-12-19T21:07:53.060736",
        "meta_mean_motion": 15.46903837,
        "meta_eccentricity": 0.0003221,
        "meta_inclination": 53.1593,
        "meta_ra_of_asc_node": 153.0444,
        "meta_arg_of_pericenter": 47.5604,
        "meta_mean_anomaly": 312.5676,
        "meta_ephemeris_type": 0,
        "meta_classification_type": "U",
        "meta_norad_cat_id": 66630,
        "meta_element_set_no": 999,
        "meta_rev_at_epoch": 531,
        "meta_bstar": -0.005658,
        "meta_mean_motion_dot": -0.002797,
        "meta_mean_motion_ddot": 0,
        "tle_line1": "1 66630U 25271P   25353.88047524 -.00279700  00000+0 -56580-2 0  9996",
        "tle_line2": "2 66630  53.1593 153.0444 0003221  47.5604 312.5676 15.46903837  5319"
      },
      "geometry": {
        "type": "Point",
        "coordinates": [
          -172.39640530746834,
          44.10632751958159
        ]
      }
    },
    {
      "type": "Feature",
      "properties": {
        "norad_id": 66631,
        "name": "STARLINK-35965",
        "group": "last-30-days",
        "lat": 42.194485505312876,
        "lon": -176.18022182575703,
        "alt_km": 423.5555210958646,
        "timestamp": "2025-12-22T09:53:36.142982+00:00",
        "meta_object_name": "STARLINK-35965",
        "meta_object_id": "2025-271Q",
        "meta_epoch": "2025-12-22T04:00:01.998720",
        "meta_mean_motion": 15.45496748,
        "meta_eccentricity": 0.0001093,
        "meta_inclination": 53.1608,
        "meta_ra_of_asc_node": 142.1709,
        "meta_arg_of_pericenter": 73.5582,
        "meta_mean_anomaly": 56.6918,
        "meta_ephemeris_type": 0,
        "meta_classification_type": "U",
        "meta_norad_cat_id": 66631,
        "meta_element_set_no": 999,
        "meta_rev_at_epoch": 575,
        "meta_bstar": 0.0010771,
        "meta_mean_motion_dot": 0.00052406,
        "meta_mean_motion_ddot": 0,
        "tle_line1": "1 66631U 25271Q   25356.16668980  .00052406  00000+0  10771-2 0  9998",
        "tle_line2": "2 66631  53.1608 142.1709 0001093  73.5582  56.6918 15.45496748  5759"
      },
      "geometry": {
        "type": "Point",
        "coordinates": [
          -176.18022182575703,
          42.194485505312876
        ]
      }
    }
  ]
}